STARLINK-5124           
1 54011U 22125AZ  22293.58334491  .00018377  00000+0  13520-3 0  9997
2 54011  53.2185  19.2211 0002388  35.6240  89.9330 15.73175991  2679
STARLINK-5126           
1 54012U 22125BA  22293.58334491  .00016335  00000+0  12068-3 0  9996
2 54012  53.2193  19.2132 0002572  29.5882 100.1649 15.73180212  1300
STARLINK-5098           
1 54013U 22125BB  22293.58334491 -.00014901  00000+0 -10188-3 0  9997
2 54013  53.2186  19.2150 0002789  24.2419 104.3075 15.73205317  1304
STARLINK-5116           
1 54014U 22125BC  22293.58334491  .00064311  00000+0  45993-3 0  9998
2 54014  53.2191  19.2151 0002592  18.7957 110.3310 15.73157410  1308
STARLINK-5055           
1 54015U 22125BD  22293.58334491 -.00022465  00000+0 -15586-3 0  9990
2 54015  53.2187  19.2101 0002592  25.0254 105.8973 15.73225458  2673
FALCON 9 DEB            
1 54016U 22125BE  22293.52220316  .00272364  39961-4  70053-3 0  9991
2 54016  53.2334  18.3467 0010686 347.2964  12.7795 15.94674272  2632
FALCON 9 DEB            
1 54017U 22125BF  22293.51595927  .00333546  55495-4  79842-3 0  9999
2 54017  53.2309  18.3023 0008956 349.3561  10.7278 15.95993870  2639
FALCON 9 DEB            
1 54018U 22125BG  22293.50426805  .00360410  64366-4  78364-3 0  9992
2 54018  53.2266  18.2163 0010754 329.7794  30.2615 15.97689377  2633
FALCON 9 DEB            
1 54019U 22125BH  22293.50299773  .00319382  52547-4  70636-3 0  9999
2 54019  53.2249  18.2033 0008354 320.1039  39.9377 15.97448098  2635
CENTISPACE-1 S5         
1 54020U 22126A   22293.55270810  .00000669  00000+0  18401-3 0  9997
2 54020  54.9973 135.2602 0013135 324.6400  35.3733 14.57919190  1901
CENTISPACE-1 S6         
1 54021U 22126B   22293.55054673  .00003186  00000+0  72410-3 0  9992
2 54021  54.9978 135.2472 0015124 323.0003  36.9820 14.58177567  1891
CZ-11H R/B              
1 54022U 22126C   22293.27043362  .00022847  00000+0  39698-3 0  9991
2 54022  56.1512 133.8348 0339140 337.4648  21.1477 15.06357419  1914
GAZELLE                 
1 54023U 22127A   22293.44534778 -.00000043  00000+0  00000+0 0  9994
2 54023  98.3144 292.4844 0012384 261.5381  98.4409 14.41644743  1836
ELECTRON KICK STAGE R/B 
1 54024U 22127B   22293.58670959  .00004040  00000+0  54923-3 0  9999
2 54024  98.2933 293.2154 0141103 341.4929  18.1163 14.72694216  1888
ELECTRON R/B            
1 54025U 22127C   22293.48506141  .00123913  53621-5  12154-2 0  9993
2 54025  98.3340 294.1372 0343401 175.0003 185.4807 15.17473936  1936
GALAXY 33               
1 54026U 22128A   22293.74888237 -.00000134  00000+0  00000+0 0  9994
2 54026   0.4017 196.6711 0352830 174.1840 150.8526  1.05938949   340
GALAXY 34               
1 54027U 22128B   22293.86031391 -.00000103  00000+0  00000+0 0  9995
2 54027   6.7303 191.3400 3422203 178.2829 243.6233  1.54795664   369
FALCON 9 R/B            
1 54028U 22128C   22293.00550241  .00002364  00000+0  72306-3 0  9994
2 54028  26.8503 186.7272 5935870 189.4491 150.6561  4.11986963   451
ASO-S                   
1 54029U 22129A   22293.48253448 -.00000176  00000+0 -33365-4 0  9991
2 54029  98.2683 298.8004 0013786 229.9712 130.0293 14.50855957  1677
CZ-2D R/B               
1 54030U 22129B   22293.45161791  .00000348  00000+0  91445-4 0  9991
2 54030  98.1947 298.6717 0019613  80.9873 279.3542 14.54804717  1674
COSMOS 2559 [GLONASS-K] 
1 54031U 22130A   22293.05900186 -.00000072  00000+0  00000+0 0  9996
2 54031  64.7792   1.3214 0001895 329.0867  34.8054  2.12838456   215
FREGAT R/B              
1 54032U 22130B   22286.02640266 -.00000089  00000+0  00000+0 0  9994
2 54032  64.7735   1.5414 0026318 173.8175 185.0931  2.11041190    45
ANGOSAT 2               
1 54033U 22131A   22291.66671459  .00000069  00000+0  00000+0 0  9997
2 54033   0.0330  22.5449 0001516  64.0619 239.4033  0.98860887    62
BLOCK DM-SL R/B         
1 54034U 22131B   22292.85390946 -.00000097  00000+0  00000+0 0  9991
2 54034   0.1565 285.0949 0081250 172.7564 263.0942  0.97748363    70
HJ-2E                   
1 54035U 22132A   22293.51100214  .00009970  00000+0  41685-3 0  9990
2 54035  97.3948 298.9587 0011681 244.3677 266.8831 15.23736866  1144
2022-132B               
1 54036U 22132B   22293.47253336  .00113378  00000+0  34973-2 0  9999
2 54036  97.3570 298.9819 0033538 298.6595 218.1346 15.32576827  1140
2022-132C               
1 54037U 22132C   22293.57000139  .00013607  00000+0  13220-2 0  9998
2 54037  97.6517 298.7221 0189464 146.7492 214.5741 14.80127685  1133
2022-132D               
1 54038U 22132D   22293.60069969  .00033345  00000+0  16426-2 0  9991
2 54038  97.5914 299.0888 0099347 206.7000 152.9016 15.13571473  1156
CZ-2C R/B               
1 54039U 22132E   22293.48545256  .00004679  00000+0  24257-3 0  9996
2 54039  97.2521 298.5251 0047521 184.6679 328.7800 15.15647514  1133
2022-132F               
1 54040U 22132F   22293.56683571  .00030834  00000+0  17218-2 0  9990
2 54040  97.1596 298.6411 0123185 197.7989 161.8812 15.07126885  1149
2022-132G               
1 54041U 22132G   22293.59350127  .00016016  00000+0  13862-2 0  9999
2 54041  97.1927 298.4907 0151351 143.4658 217.6980 14.88714671  1132
2022-133A               
1 54042U 22133A   22293.30299971  .00026569  00000+0  10453-2 0  9996
2 54042  34.9992 252.0614 0009180 318.7274 157.9836 15.24687207   846
2022-133B               
1 54043U 22133B   22293.30236361  .00011854  00000+0  46694-3 0  9999
2 54043  34.9980 252.0555 0009143 325.8151 150.6687 15.24771952   845
2022-133C               
1 54044U 22133C   22293.30180861  .00028902  00000+0  11254-2 0  9998
2 54044  34.9989 252.0522 0009687 326.5721 149.8042 15.25012878   844
2022-133D               
1 54045U 22133D   22293.30697875  .00017583  00000+0  68390-3 0  9994
2 54045  34.9978 252.0100 0009280 333.9111 174.4402 15.25130449   848
2022-133E               
1 54046U 22133E   22293.30982706  .00013063  00000+0  52116-3 0  9993
2 54046  34.9996 252.0281 0007891 313.4866 195.5235 15.24339874   845
2022-134A               
1 54048U 22134A   22291.85774249  .00000035  00000+0  10000-3 0  9996
2 54048  26.3142 300.3171 8017773 181.0470 309.7680  1.33271706    47
2022-134B               
1 54049U 22134B   22293.06582677  .00000010  00000+0 -25414-3 0  9993
2 54049  26.8112 300.0069 8047789 181.5230 171.8547  1.34298135    60
COSMOS 2560             
1 54050U 22135A   22293.73245865  .00156069  00000+0  87426-3 0  9991
2 54050  96.3470  21.3404 0011919 229.2241 289.1061 15.78789139   760
